[
  {
    "OBJECT_NAME": "SL-14 R/B",
    "OBJECT_ID": "1987-038B",
    "EPOCH": "2026-04-08T11:25:32.284704",
    "MEAN_MOTION": 14.85399477,
    "ECCENTRICITY": 0.00206351,
    "INCLINATION": 82.4981,
    "RA_OF_ASC_NODE": 268.7381,
    "ARG_OF_PERICENTER": 67.9906,
    "MEAN_ANOMALY": 292.35,
    "EPHEMERIS_TYPE": 0,
    "CLASSIFICATION_TYPE": "U",
    "NORAD_CAT_ID": 17912,
    "ELEMENT_SET_NO": 999,
    "REV_AT_EPOCH": 8365,
    "BSTAR": 5.2849128e-5,
    "MEAN_MOTION_DOT": 4.81e-6,
    "MEAN_MOTION_DDOT": 0
  },
  {
    "OBJECT_NAME": "COSMOS 1844",
    "OBJECT_ID": "1987-041A",
    "EPOCH": "2026-04-08T09:11:43.327968",
    "MEAN_MOTION": 14.14564284,
    "ECCENTRICITY": 0.00318454,
    "INCLINATION": 70.9013,
    "RA_OF_ASC_NODE": 331.5473,
    "ARG_OF_PERICENTER": 334.1756,
    "MEAN_ANOMALY": 25.7774,
    "EPHEMERIS_TYPE": 0,
    "CLASSIFICATION_TYPE": "U",
    "NORAD_CAT_ID": 17973,
    "ELEMENT_SET_NO": 999,
    "REV_AT_EPOCH": 778,
    "BSTAR": 0.0001007658,
    "MEAN_MOTION_DOT": 1.46e-6,
    "MEAN_MOTION_DDOT": 0
  },
  {
    "OBJECT_NAME": "SL-14 R/B",
    "OBJECT_ID": "1987-055B",
    "EPOCH": "2026-04-08T13:58:37.498944",
    "MEAN_MOTION": 14.85659439,
    "ECCENTRICITY": 0.00191073,
    "INCLINATION": 82.4988,
    "RA_OF_ASC_NODE": 320.8593,
    "ARG_OF_PERICENTER": 275.3418,
    "MEAN_ANOMALY": 84.5618,
    "EPHEMERIS_TYPE": 0,
    "CLASSIFICATION_TYPE": "U",
    "NORAD_CAT_ID": 18153,
    "ELEMENT_SET_NO": 999,
    "REV_AT_EPOCH": 7437,
    "BSTAR": 3.880115e-5,
    "MEAN_MOTION_DOT": 3.61e-6,
    "MEAN_MOTION_DDOT": 0
  },
  {
    "OBJECT_NAME": "COSMOS 1867",
    "OBJECT_ID": "1987-060A",
    "EPOCH": "2026-04-08T14:54:49.844736",
    "MEAN_MOTION": 14.31508027,
    "ECCENTRICITY": 0.00150321,
    "INCLINATION": 65.0106,
    "RA_OF_ASC_NODE": 222.8778,
    "ARG_OF_PERICENTER": 280.3091,
    "MEAN_ANOMALY": 79.6299,
    "EPHEMERIS_TYPE": 0,
    "CLASSIFICATION_TYPE": "U",
    "NORAD_CAT_ID": 18187,
    "ELEMENT_SET_NO": 999,
    "REV_AT_EPOCH": 2422,
    "BSTAR": 3.4534098e-5,
    "MEAN_MOTION_DOT": -8.0e-8,
    "MEAN_MOTION_DDOT": 0
  },
  {
    "OBJECT_NAME": "SL-14 R/B",
    "OBJECT_ID": "1988-001B",
    "EPOCH": "2026-04-08T13:54:56.104128",
    "MEAN_MOTION": 14.85561161,
    "ECCENTRICITY": 0.00191722,
    "INCLINATION": 82.5152,
    "RA_OF_ASC_NODE": 167.2563,
    "ARG_OF_PERICENTER": 136.2543,
    "MEAN_ANOMALY": 224.0197,
    "EPHEMERIS_TYPE": 0,
    "CLASSIFICATION_TYPE": "U",
    "NORAD_CAT_ID": 18749,
    "ELEMENT_SET_NO": 999,
    "REV_AT_EPOCH": 4646,
    "BSTAR": 4.2104692e-5,
    "MEAN_MOTION_DOT": 3.9e-6,
    "MEAN_MOTION_DDOT": 0
  },
  {
    "OBJECT_NAME": "COSMOS 1933",
    "OBJECT_ID": "1988-020A",
    "EPOCH": "2026-04-08T07:39:16.421184",
    "MEAN_MOTION": 15.18289919,
    "ECCENTRICITY": 0.00054263,
    "INCLINATION": 82.5144,
    "RA_OF_ASC_NODE": 221.5908,
    "ARG_OF_PERICENTER": 97.1643,
    "MEAN_ANOMALY": 263.0208,
    "EPHEMERIS_TYPE": 0,
    "CLASSIFICATION_TYPE": "U",
    "NORAD_CAT_ID": 18958,
    "ELEMENT_SET_NO": 999,
    "REV_AT_EPOCH": 5472,
    "BSTAR": 0.0001769286,
    "MEAN_MOTION_DOT": 3.658e-5,
    "MEAN_MOTION_DDOT": 0
  },
  {
    "OBJECT_NAME": "SL-3 R/B",
    "OBJECT_ID": "1988-032B",
    "EPOCH": "2026-04-08T14:50:42.753696",
    "MEAN_MOTION": 15.20259336,
    "ECCENTRICITY": 0.00273244,
    "INCLINATION": 97.5231,
    "RA_OF_ASC_NODE": 81.7789,
    "ARG_OF_PERICENTER": 127.2582,
    "MEAN_ANOMALY": 233.1151,
    "EPHEMERIS_TYPE": 0,
    "CLASSIFICATION_TYPE": "U",
    "NORAD_CAT_ID": 19046,
    "ELEMENT_SET_NO": 999,
    "REV_AT_EPOCH": 5665,
    "BSTAR": 0.0002052033,
    "MEAN_MOTION_DOT": 4.425e-5,
    "MEAN_MOTION_DDOT": 0
  },
  {
    "OBJECT_NAME": "SL-16 R/B",
    "OBJECT_ID": "1988-039B",
    "EPOCH": "2026-04-08T10:24:27.555264",
    "MEAN_MOTION": 14.19620937,
    "ECCENTRICITY": 0.0023927,
    "INCLINATION": 71.0175,
    "RA_OF_ASC_NODE": 5.6548,
    "ARG_OF_PERICENTER": 292.0004,
    "MEAN_ANOMALY": 67.8579,
    "EPHEMERIS_TYPE": 0,
    "CLASSIFICATION_TYPE": "U",
    "NORAD_CAT_ID": 19120,
    "ELEMENT_SET_NO": 999,
    "REV_AT_EPOCH": 96260,
    "BSTAR": 4.5607211e-5,
    "MEAN_MOTION_DOT": 4.8e-7,
    "MEAN_MOTION_DDOT": 0
  },
  {
    "OBJECT_NAME": "COSMOS 1953",
    "OBJECT_ID": "1988-050A",
    "EPOCH": "2026-04-08T11:20:51.984960",
    "MEAN_MOTION": 15.29015462,
    "ECCENTRICITY": 0.0011446,
    "INCLINATION": 82.5061,
    "RA_OF_ASC_NODE": 128.2794,
    "ARG_OF_PERICENTER": 28.9011,
    "MEAN_ANOMALY": 331.2861,
    "EPHEMERIS_TYPE": 0,
    "CLASSIFICATION_TYPE": "U",
    "NORAD_CAT_ID": 19210,
    "ELEMENT_SET_NO": 999,
    "REV_AT_EPOCH": 4233,
    "BSTAR": 0.0002348881,
    "MEAN_MOTION_DOT": 6.661e-5,
    "MEAN_MOTION_DDOT": 0
  },
  {
    "OBJECT_NAME": "SL-8 R/B",
    "OBJECT_ID": "1988-053B",
    "EPOCH": "2026-04-08T15:25:58.774368",
    "MEAN_MOTION": 14.38936038,
    "ECCENTRICITY": 0.00212339,
    "INCLINATION": 74.0475,
    "RA_OF_ASC_NODE": 57.2485,
    "ARG_OF_PERICENTER": 232.3647,
    "MEAN_ANOMALY": 300.3803,
    "EPHEMERIS_TYPE": 0,
    "CLASSIFICATION_TYPE": "U",
    "NORAD_CAT_ID": 19257,
    "ELEMENT_SET_NO": 999,
    "REV_AT_EPOCH": 98090,
    "BSTAR": 7.7447769e-5,
    "MEAN_MOTION_DOT": 2.13e-6,
    "MEAN_MOTION_DDOT": 0
  },
  {
    "OBJECT_NAME": "COSMOS 1975",
    "OBJECT_ID": "1988-093A",
    "EPOCH": "2026-04-08T10:48:50.181984",
    "MEAN_MOTION": 15.28499042,
    "ECCENTRICITY": 0.00132199,
    "INCLINATION": 82.5168,
    "RA_OF_ASC_NODE": 87.7923,
    "ARG_OF_PERICENTER": 70.4378,
    "MEAN_ANOMALY": 289.8287,
    "EPHEMERIS_TYPE": 0,
    "CLASSIFICATION_TYPE": "U",
    "NORAD_CAT_ID": 19573,
    "ELEMENT_SET_NO": 999,
    "REV_AT_EPOCH": 2395,
    "BSTAR": 0.0001933118,
    "MEAN_MOTION_DOT": 5.406e-5,
    "MEAN_MOTION_DDOT": 0
  },
  {
    "OBJECT_NAME": "SL-14 R/B",
    "OBJECT_ID": "1988-093B",
    "EPOCH": "2026-04-08T12:28:25.111776",
    "MEAN_MOTION": 14.8569339,
    "ECCENTRICITY": 0.00193389,
    "INCLINATION": 82.5345,
    "RA_OF_ASC_NODE": 14.048,
    "ARG_OF_PERICENTER": 301.9717,
    "MEAN_ANOMALY": 230.9796,
    "EPHEMERIS_TYPE": 0,
    "CLASSIFICATION_TYPE": "U",
    "NORAD_CAT_ID": 19574,
    "ELEMENT_SET_NO": 999,
    "REV_AT_EPOCH": 544,
    "BSTAR": 5.064527e-5,
    "MEAN_MOTION_DOT": 4.64e-6,
    "MEAN_MOTION_DDOT": 0
  },
  {
    "OBJECT_NAME": "SL-16 R/B",
    "OBJECT_ID": "1988-102B",
    "EPOCH": "2026-04-08T08:37:52.311936",
    "MEAN_MOTION": 14.16157953,
    "ECCENTRICITY": 0.00156318,
    "INCLINATION": 70.9976,
    "RA_OF_ASC_NODE": 89.0657,
    "ARG_OF_PERICENTER": 318.5645,
    "MEAN_ANOMALY": 41.4292,
    "EPHEMERIS_TYPE": 0,
    "CLASSIFICATION_TYPE": "U",
    "NORAD_CAT_ID": 19650,
    "ELEMENT_SET_NO": 999,
    "REV_AT_EPOCH": 93109,
    "BSTAR": 0.00016354331,
    "MEAN_MOTION_DOT": 2.76e-6,
    "MEAN_MOTION_DDOT": 0
  },
  {
    "OBJECT_NAME": "INTERCOSMOS 24",
    "OBJECT_ID": "1989-080A",
    "EPOCH": "2026-04-08T10:21:01.645056",
    "MEAN_MOTION": 12.59593333,
    "ECCENTRICITY": 0.11871048,
    "INCLINATION": 82.6016,
    "RA_OF_ASC_NODE": 85.0309,
    "ARG_OF_PERICENTER": 223.7348,
    "MEAN_ANOMALY": 126.3556,
    "EPHEMERIS_TYPE": 0,
    "CLASSIFICATION_TYPE": "U",
    "NORAD_CAT_ID": 20261,
    "ELEMENT_SET_NO": 999,
    "REV_AT_EPOCH": 67054,
    "BSTAR": 7.871849e-5,
    "MEAN_MOTION_DOT": 2.73e-6,
    "MEAN_MOTION_DDOT": 0
  }
]
