SL-14 R/B               
1 17912U 87038B   26098.47606811  .00000481  00000+0  52849-4 0  9998
2 17912  82.4981 268.7381 0020635  67.9906 292.3500 14.85399477 83652
COSMOS 1844             
1 17973U 87041A   26098.38314037  .00000146  00000+0  10077-3 0  9999
2 17973  70.9013 331.5473 0031845 334.1756  25.7774 14.14564284  7788
SL-14 R/B               
1 18153U 87055B   26098.58237846  .00000361  00000+0  38801-4 0  9994
2 18153  82.4988 320.8593 0019107 275.3418  84.5618 14.85659439 74374
COSMOS 1867             
1 18187U 87060A   26098.62141024 -.00000008  00000+0  34534-4 0  9992
2 18187  65.0106 222.8778 0015032 280.3091  79.6299 14.31508027 24228
SL-14 R/B               
1 18749U 88001B   26098.57981602  .00000390  00000+0  42105-4 0  9996
2 18749  82.5152 167.2563 0019172 136.2543 224.0197 14.85561161 46461
COSMOS 1933             
1 18958U 88020A   26098.31894006  .00003658  00000+0  17693-3 0  9995
2 18958  82.5144 221.5908 0005426  97.1643 263.0208 15.18289919 54723
SL-3 R/B                
1 19046U 88032B   26098.61855039  .00004425  00000+0  20520-3 0  9999
2 19046  97.5231  81.7789 0027324 127.2582 233.1151 15.20259336 56658
SL-16 R/B               
1 19120U 88039B   26098.43365226  .00000048  00000+0  45607-4 0  9994
2 19120  71.0175   5.6548 0023927 292.0004  67.8579 14.19620937962601
COSMOS 1953             
1 19210U 88050A   26098.47282390  .00006661  00000+0  23489-3 0  9991
2 19210  82.5061 128.2794 0011446  28.9011 331.2861 15.29015462 42338
SL-8 R/B                
1 19257U 88053B   26098.64304137  .00000213  00000+0  77448-4 0  9990
2 19257  74.0475  57.2485 0021233 232.3647 300.3803 14.38936038980900
COSMOS 1975             
1 19573U 88093A   26098.45058081  .00005406  00000+0  19331-3 0  9993
2 19573  82.5168  87.7923 0013219  70.4378 289.8287 15.28499042 23955
SL-14 R/B               
1 19574U 88093B   26098.51973509  .00000464  00000+0  50645-4 0  9995
2 19574  82.5345  14.0480 0019338 301.9717 230.9796 14.85693390  5441
SL-16 R/B               
1 19650U 88102B   26098.35963324  .00000276  00000+0  16354-3 0  9996
2 19650  70.9976  89.0657 0015631 318.5645  41.4292 14.16157953931090
INTERCOSMOS 24          
1 20261U 89080A   26098.43126904  .00000273  00000+0  78718-4 0  9996
2 20261  82.6016  85.0309 1187104 223.7348 126.3556 12.59593333670545
